[
    {
        "OBJECT_NAME": "GSAT0212 (GALILEO 16)",
        "OBJECT_ID": "2016-069B",
        "EPOCH": "2026-07-07T03:06:21.976128",
        "MEAN_MOTION": 1.7047365,
        "ECCENTRICITY": 0.000438,
        "INCLINATION": 55.5076,
        "RA_OF_ASC_NODE": 100.5296,
        "ARG_OF_PERICENTER": 9.6218,
        "MEAN_ANOMALY": 350.4046,
        "EPHEMERIS_TYPE": 0,
        "CLASSIFICATION_TYPE": "U",
        "NORAD_CAT_ID": 41860,
        "ELEMENT_SET_NO": 999,
        "REV_AT_EPOCH": 5999,
        "BSTAR": 0,
        "MEAN_MOTION_DOT": -3e-08,
        "MEAN_MOTION_DDOT": 0
    },
    {
        "OBJECT_NAME": "GSAT0213 (GALILEO 17)",
        "OBJECT_ID": "2016-069C",
        "EPOCH": "2026-07-06T07:45:43.314336",
        "MEAN_MOTION": 1.70474232,
        "ECCENTRICITY": 0.00046289,
        "INCLINATION": 55.5092,
        "RA_OF_ASC_NODE": 100.5598,
        "ARG_OF_PERICENTER": 315.4701,
        "MEAN_ANOMALY": 44.5123,
        "EPHEMERIS_TYPE": 0,
        "CLASSIFICATION_TYPE": "U",
        "NORAD_CAT_ID": 41861,
        "ELEMENT_SET_NO": 999,
        "REV_AT_EPOCH": 5984,
        "BSTAR": 0,
        "MEAN_MOTION_DOT": 0,
        "MEAN_MOTION_DDOT": 0
    },
    {
        "OBJECT_NAME": "GSAT0214 (GALILEO 18)",
        "OBJECT_ID": "2016-069D",
        "EPOCH": "2026-07-06T11:16:20.180064",
        "MEAN_MOTION": 1.7047383,
        "ECCENTRICITY": 0.00038073,
        "INCLINATION": 55.508,
        "RA_OF_ASC_NODE": 100.5485,
        "ARG_OF_PERICENTER": 326.3091,
        "MEAN_ANOMALY": 33.6861,
        "EPHEMERIS_TYPE": 0,
        "CLASSIFICATION_TYPE": "U",
        "NORAD_CAT_ID": 41862,
        "ELEMENT_SET_NO": 999,
        "REV_AT_EPOCH": 5997,
        "BSTAR": 0,
        "MEAN_MOTION_DOT": -1e-08,
        "MEAN_MOTION_DDOT": 0
    },
    {
        "OBJECT_NAME": "GSAT0215 (GALILEO 19)",
        "OBJECT_ID": "2017-079A",
        "EPOCH": "2026-07-09T07:20:07.644192",
        "MEAN_MOTION": 1.70474298,
        "ECCENTRICITY": 0.00036237,
        "INCLINATION": 55.0687,
        "RA_OF_ASC_NODE": 220.8977,
        "ARG_OF_PERICENTER": 268.5833,
        "MEAN_ANOMALY": 91.4517,
        "EPHEMERIS_TYPE": 0,
        "CLASSIFICATION_TYPE": "U",
        "NORAD_CAT_ID": 43055,
        "ELEMENT_SET_NO": 999,
        "REV_AT_EPOCH": 5336,
        "BSTAR": 0,
        "MEAN_MOTION_DOT": 8.8e-07,
        "MEAN_MOTION_DDOT": 0
    },
    {
        "OBJECT_NAME": "GSAT0216 (GALILEO 20)",
        "OBJECT_ID": "2017-079B",
        "EPOCH": "2026-07-10T04:24:02.909664",
        "MEAN_MOTION": 1.70474478,
        "ECCENTRICITY": 0.00048214,
        "INCLINATION": 55.069,
        "RA_OF_ASC_NODE": 220.8736,
        "ARG_OF_PERICENTER": 276.9654,
        "MEAN_ANOMALY": 83.0589,
        "EPHEMERIS_TYPE": 0,
        "CLASSIFICATION_TYPE": "U",
        "NORAD_CAT_ID": 43056,
        "ELEMENT_SET_NO": 999,
        "REV_AT_EPOCH": 5339,
        "BSTAR": 0,
        "MEAN_MOTION_DOT": 9e-07,
        "MEAN_MOTION_DDOT": 0
    },
    {
        "OBJECT_NAME": "GSAT0217 (GALILEO 21)",
        "OBJECT_ID": "2017-079C",
        "EPOCH": "2026-07-07T11:18:36.053568",
        "MEAN_MOTION": 1.70474257,
        "ECCENTRICITY": 0.00039099,
        "INCLINATION": 55.0679,
        "RA_OF_ASC_NODE": 220.9459,
        "ARG_OF_PERICENTER": 293.3909,
        "MEAN_ANOMALY": 66.6394,
        "EPHEMERIS_TYPE": 0,
        "CLASSIFICATION_TYPE": "U",
        "NORAD_CAT_ID": 43057,
        "ELEMENT_SET_NO": 999,
        "REV_AT_EPOCH": 5333,
        "BSTAR": 0,
        "MEAN_MOTION_DOT": 8.1e-07,
        "MEAN_MOTION_DDOT": 0
    },
    {
        "OBJECT_NAME": "GSAT0218 (GALILEO 22)",
        "OBJECT_ID": "2017-079D",
        "EPOCH": "2026-07-10T00:54:14.294016",
        "MEAN_MOTION": 1.70474412,
        "ECCENTRICITY": 0.00053248,
        "INCLINATION": 55.0673,
        "RA_OF_ASC_NODE": 220.8729,
        "ARG_OF_PERICENTER": 274.1893,
        "MEAN_ANOMALY": 85.8286,
        "EPHEMERIS_TYPE": 0,
        "CLASSIFICATION_TYPE": "U",
        "NORAD_CAT_ID": 43058,
        "ELEMENT_SET_NO": 999,
        "REV_AT_EPOCH": 5340,
        "BSTAR": 0,
        "MEAN_MOTION_DOT": 9e-07,
        "MEAN_MOTION_DDOT": 0
    },
    {
        "OBJECT_NAME": "GSAT0221 (GALILEO 25)",
        "OBJECT_ID": "2018-060A",
        "EPOCH": "2026-07-09T22:36:05.857344",
        "MEAN_MOTION": 1.70476012,
        "ECCENTRICITY": 0.0002608,
        "INCLINATION": 57.1621,
        "RA_OF_ASC_NODE": 341.1668,
        "ARG_OF_PERICENTER": 288.2741,
        "MEAN_ANOMALY": 71.6944,
        "EPHEMERIS_TYPE": 0,
        "CLASSIFICATION_TYPE": "U",
        "NORAD_CAT_ID": 43564,
        "ELEMENT_SET_NO": 999,
        "REV_AT_EPOCH": 4955,
        "BSTAR": 0,
        "MEAN_MOTION_DOT": -7.9e-07,
        "MEAN_MOTION_DDOT": 0
    },
    {
        "OBJECT_NAME": "GSAT0222 (GALILEO 26)",
        "OBJECT_ID": "2018-060B",
        "EPOCH": "2026-07-08T23:43:05.546496",
        "MEAN_MOTION": 1.70475769,
        "ECCENTRICITY": 0.00026268,
        "INCLINATION": 57.1651,
        "RA_OF_ASC_NODE": 341.1962,
        "ARG_OF_PERICENTER": 236.6696,
        "MEAN_ANOMALY": 123.3045,
        "EPHEMERIS_TYPE": 0,
        "CLASSIFICATION_TYPE": "U",
        "NORAD_CAT_ID": 43565,
        "ELEMENT_SET_NO": 999,
        "REV_AT_EPOCH": 4958,
        "BSTAR": 0,
        "MEAN_MOTION_DOT": -7.5e-07,
        "MEAN_MOTION_DDOT": 0
    },
    {
        "OBJECT_NAME": "GSAT0219 (GALILEO 23)",
        "OBJECT_ID": "2018-060C",
        "EPOCH": "2026-07-09T05:01:07.936896",
        "MEAN_MOTION": 1.70476041,
        "ECCENTRICITY": 0.00017911,
        "INCLINATION": 57.1645,
        "RA_OF_ASC_NODE": 341.1918,
        "ARG_OF_PERICENTER": 303.0651,
        "MEAN_ANOMALY": 56.9164,
        "EPHEMERIS_TYPE": 0,
        "CLASSIFICATION_TYPE": "U",
        "NORAD_CAT_ID": 43566,
        "ELEMENT_SET_NO": 999,
        "REV_AT_EPOCH": 4956,
        "BSTAR": 0,
        "MEAN_MOTION_DOT": -7.6e-07,
        "MEAN_MOTION_DDOT": 0
    },
    {
        "OBJECT_NAME": "GSAT0220 (GALILEO 24)",
        "OBJECT_ID": "2018-060D",
        "EPOCH": "2026-07-10T00:24:02.810880",
        "MEAN_MOTION": 1.70475701,
        "ECCENTRICITY": 0.00021102,
        "INCLINATION": 57.1639,
        "RA_OF_ASC_NODE": 341.1705,
        "ARG_OF_PERICENTER": 293.5002,
        "MEAN_ANOMALY": 66.4744,
        "EPHEMERIS_TYPE": 0,
        "CLASSIFICATION_TYPE": "U",
        "NORAD_CAT_ID": 43567,
        "ELEMENT_SET_NO": 999,
        "REV_AT_EPOCH": 4956,
        "BSTAR": 0,
        "MEAN_MOTION_DOT": -7.9e-07,
        "MEAN_MOTION_DDOT": 0
    },
    {
        "OBJECT_NAME": "GSAT0223 (GALILEO 27)",
        "OBJECT_ID": "2021-116A",
        "EPOCH": "2026-07-09T20:59:25.855584",
        "MEAN_MOTION": 1.70475927,
        "ECCENTRICITY": 0.0002356,
        "INCLINATION": 57.1531,
        "RA_OF_ASC_NODE": 341.0636,
        "ARG_OF_PERICENTER": 194.9735,
        "MEAN_ANOMALY": 168.6501,
        "EPHEMERIS_TYPE": 0,
        "CLASSIFICATION_TYPE": "U",
        "NORAD_CAT_ID": 49809,
        "ELEMENT_SET_NO": 999,
        "REV_AT_EPOCH": 2857,
        "BSTAR": 0,
        "MEAN_MOTION_DOT": -7.8e-07,
        "MEAN_MOTION_DDOT": 0
    },
    {
        "OBJECT_NAME": "GSAT0224 (GALILEO 28)",
        "OBJECT_ID": "2021-116B",
        "EPOCH": "2026-07-10T06:33:55.425024",
        "MEAN_MOTION": 1.70475962,
        "ECCENTRICITY": 0.000179,
        "INCLINATION": 57.1533,
        "RA_OF_ASC_NODE": 341.0513,
        "ARG_OF_PERICENTER": 180.2049,
        "MEAN_ANOMALY": 180.8962,
        "EPHEMERIS_TYPE": 0,
        "CLASSIFICATION_TYPE": "U",
        "NORAD_CAT_ID": 49810,
        "ELEMENT_SET_NO": 999,
        "REV_AT_EPOCH": 2860,
        "BSTAR": 0,
        "MEAN_MOTION_DOT": -8e-07,
        "MEAN_MOTION_DDOT": 0
    }
]